{
 "type": "FeatureCollection",
 "features": [
  {
   "type": "Feature",
   "geometry": {
    "type": "LineString",
    "coordinates": [
     [
      500020.0,
      3050074.8158409037,
      1402.8198829015942
     ],
     [
      500035.0,
      3050085.274272877,
      1404.8356666459108
     ],
     [
      500050.0,
      3050094.705305596,
      1406.388801461995
     ],
     [
      500065.0,
      3050102.755719963,
      1407.4206481591293
     ],
     [
      500080.0,
      3050109.1581370407,
      1408.0027174740023
     ],
     [
      500095.0,
      3050113.747642383,
      1408.3380722930399
     ],
     [
      500110.0,
      3050116.472039613,
      1408.7182011064433
     ],
     [
      500125.0,
      3050117.3950957432,
      1409.42414739106
     ],
     [
      500140.0,
      3050116.692576452,
      1410.5902088602447
     ],
     [
      500155.0,
      3050114.6413178234,
      1412.1042207229814
     ],
     [
      500170.0,
      3050111.602014021,
      1413.6520493526523
     ],
     [
      500185.0,
      3050107.9967910717,
      1414.9308402865113
     ],
     [
      500200.0,
      3050104.282961114,
      1415.8711550082464
     ],
     [
      500215.0,
      3050100.924588944,
      1416.6507496380752
     ],
     [
      500230.0,
      3050098.3636387144,
      1417.4932279659577
     ],
     [
      500245.0,
      3050096.9924947442,
      1418.4688280709317
     ],
     [
      500260.0,
      3050097.129564962,
      1419.4647638490221
     ],
     [
      500275.0,
      3050098.999483842,
      1420.291469589299
     ],
     [
      500290.0,
      3050102.719145722,
      1420.8036886277666
     ],
     [
      500305.0,
      3050108.29043688,
      1420.9659772979528
     ],
     [
      500320.0,
      3050115.600118253,
      1420.8596516001521
     ],
     [
      500335.0,
      3050124.426866094,
      1420.6534333367827
     ],
     [
      500350.0,
      3050134.455032811,
      1420.5577096364043
     ],
     [
      500365.0,
      3050145.294272406,
      1420.7754530905813
     ],
     [
      500380.0,
      3050156.5038102963,
      1421.4587899670864
     ]
    ]
   },
   "properties": {
    "kind": "feature",
    "layer": "Features",
    "name": "stream"
   }
  },
  {
   "type": "Feature",
   "geometry": {
    "type": "Polygon",
    "coordinates": [
     [
      [
       500010,
       3050010
      ],
      [
       500390,
       3050010
      ],
      [
       500390,
       3050240
      ],
      [
       500200,
       3050235
      ],
      [
       500010,
       3050240
      ],
      [
       500010,
       3050010
      ]
     ]
    ]
   },
   "properties": {
    "kind": "boundary",
    "layer": "Boundary"
   }
  }
 ]
}